[{"OBJECT_NAME":"STARLINK-30431","OBJECT_ID":"2023-141N","EPOCH":"2026-03-09T19:50:30.555456","MEAN_MOTION":15.30189985,"ECCENTRICITY":9.658e-5,"INCLINATION":53.1592,"RA_OF_ASC_NODE":283.1577,"ARG_OF_PERICENTER":110.9615,"MEAN_ANOMALY":249.1489,"EPHEMERIS_TYPE":0,"CLASSIFICATION_TYPE":"U","NORAD_CAT_ID":57852,"ELEMENT_SET_NO":999,"REV_AT_EPOCH":14034,"BSTAR":1.9283306e-5,"MEAN_MOTION_DOT":2.12e-6,"MEAN_MOTION_DDOT":0},{"OBJECT_NAME":"OBJECT L","OBJECT_ID":"2024-024L","EPOCH":"2026-03-09T22:36:05.522976","MEAN_MOTION":15.29373491,"ECCENTRICITY":0.00073185,"INCLINATION":97.3169,"RA_OF_ASC_NODE":137.7038,"ARG_OF_PERICENTER":167.6369,"MEAN_ANOMALY":192.5052,"EPHEMERIS_TYPE":0,"CLASSIFICATION_TYPE":"U","NORAD_CAT_ID":58927,"ELEMENT_SET_NO":999,"REV_AT_EPOCH":9318,"BSTAR":0.00043092344,"MEAN_MOTION_DOT":0.00012217,"MEAN_MOTION_DDOT":0}]
